[
  {
    "OBJECT_NAME": "STARLINK-31213",
    "OBJECT_ID": "2024-019H",
    "EPOCH": "2024-02-05T06:00:00.999648",
    "MEAN_MOTION": 15.82883812,
    "ECCENTRICITY": 0.0001985,
    "INCLINATION": 43.0055,
    "RA_OF_ASC_NODE": 237.9515,
    "ARG_OF_PERICENTER": 264.7152,
    "MEAN_ANOMALY": 107.5996,
    "EPHEMERIS_TYPE": 0,
    "CLASSIFICATION_TYPE": "U",
    "NORAD_CAT_ID": 58860,
    "ELEMENT_SET_NO": 999,
    "REV_AT_EPOCH": 235,
    "BSTAR": -0.0059878,
    "MEAN_MOTION_DOT": -0.01172239,
    "MEAN_MOTION_DDOT": 0
  },
  {
    "OBJECT_NAME": "STARLINK-31199",
    "OBJECT_ID": "2024-019J",
    "EPOCH": "2024-02-05T06:00:00.999648",
    "MEAN_MOTION": 15.82885183,
    "ECCENTRICITY": 0.0001999,
    "INCLINATION": 43.0056,
    "RA_OF_ASC_NODE": 237.9473,
    "ARG_OF_PERICENTER": 269.3737,
    "MEAN_ANOMALY": 104.5906,
    "EPHEMERIS_TYPE": 0,
    "CLASSIFICATION_TYPE": "U",
    "NORAD_CAT_ID": 58861,
    "ELEMENT_SET_NO": 999,
    "REV_AT_EPOCH": 235,
    "BSTAR": -0.0060625,
    "MEAN_MOTION_DOT": -0.01185353,
    "MEAN_MOTION_DDOT": 0
  },
  {
    "OBJECT_NAME": "STARLINK-31200",
    "OBJECT_ID": "2024-019K",
    "EPOCH": "2024-02-05T06:00:00.999648",
    "MEAN_MOTION": 15.82888133,
    "ECCENTRICITY": 0.0001888,
    "INCLINATION": 43.0057,
    "RA_OF_ASC_NODE": 237.9433,
    "ARG_OF_PERICENTER": 269.0622,
    "MEAN_ANOMALY": 106.4641,
    "EPHEMERIS_TYPE": 0,
    "CLASSIFICATION_TYPE": "U",
    "NORAD_CAT_ID": 58862,
    "ELEMENT_SET_NO": 999,
    "REV_AT_EPOCH": 235,
    "BSTAR": -0.006141,
    "MEAN_MOTION_DOT": -0.01199097,
    "MEAN_MOTION_DDOT": 0
  },
  {
    "OBJECT_NAME": "STARLINK-31149",
    "OBJECT_ID": "2024-019L",
    "EPOCH": "2024-02-05T06:00:00.999648",
    "MEAN_MOTION": 15.82889884,
    "ECCENTRICITY": 0.0001903,
    "INCLINATION": 43.0055,
    "RA_OF_ASC_NODE": 237.9395,
    "ARG_OF_PERICENTER": 272.7787,
    "MEAN_ANOMALY": 104.2567,
    "EPHEMERIS_TYPE": 0,
    "CLASSIFICATION_TYPE": "U",
    "NORAD_CAT_ID": 58863,
    "ELEMENT_SET_NO": 999,
    "REV_AT_EPOCH": 235,
    "BSTAR": -0.006204,
    "MEAN_MOTION_DOT": -0.0121013,
    "MEAN_MOTION_DDOT": 0
  },
  {
    "OBJECT_NAME": "STARLINK-31242",
    "OBJECT_ID": "2024-019M",
    "EPOCH": "2024-02-05T06:00:00.999648",
    "MEAN_MOTION": 15.82890044,
    "ECCENTRICITY": 0.0002074,
    "INCLINATION": 43.0054,
    "RA_OF_ASC_NODE": 237.9354,
    "ARG_OF_PERICENTER": 270.6647,
    "MEAN_ANOMALY": 107.9918,
    "EPHEMERIS_TYPE": 0,
    "CLASSIFICATION_TYPE": "U",
    "NORAD_CAT_ID": 58864,
    "ELEMENT_SET_NO": 999,
    "REV_AT_EPOCH": 235,
    "BSTAR": -0.0062808,
    "MEAN_MOTION_DOT": -0.01223539,
    "MEAN_MOTION_DDOT": 0
  },
  {
    "OBJECT_NAME": "STARLINK-31223",
    "OBJECT_ID": "2024-019N",
    "EPOCH": "2024-02-05T06:00:00.999648",
    "MEAN_MOTION": 15.82892113,
    "ECCENTRICITY": 0.0001934,
    "INCLINATION": 43.0053,
    "RA_OF_ASC_NODE": 237.9314,
    "ARG_OF_PERICENTER": 265.3034,
    "MEAN_ANOMALY": 114.8649,
    "EPHEMERIS_TYPE": 0,
    "CLASSIFICATION_TYPE": "U",
    "NORAD_CAT_ID": 58865,
    "ELEMENT_SET_NO": 999,
    "REV_AT_EPOCH": 219,
    "BSTAR": -0.0063618,
    "MEAN_MOTION_DOT": -0.0123754,
    "MEAN_MOTION_DDOT": 0
  },
  {
    "OBJECT_NAME": "STARLINK-31219",
    "OBJECT_ID": "2024-019P",
    "EPOCH": "2024-02-05T06:00:00.999648",
    "MEAN_MOTION": 15.82892686,
    "ECCENTRICITY": 0.0001905,
    "INCLINATION": 43.0053,
    "RA_OF_ASC_NODE": 237.9274,
    "ARG_OF_PERICENTER": 264.443,
    "MEAN_ANOMALY": 117.2668,
    "EPHEMERIS_TYPE": 0,
    "CLASSIFICATION_TYPE": "U",
    "NORAD_CAT_ID": 58866,
    "ELEMENT_SET_NO": 999,
    "REV_AT_EPOCH": 209,
    "BSTAR": -0.0064422,
    "MEAN_MOTION_DOT": -0.01251385,
    "MEAN_MOTION_DDOT": 0
  },
  {
    "OBJECT_NAME": "STARLINK-31198",
    "OBJECT_ID": "2024-019Q",
    "EPOCH": "2024-02-05T06:00:00.999648",
    "MEAN_MOTION": 15.8673252,
    "ECCENTRICITY": 0.0001887,
    "INCLINATION": 43.0052,
    "RA_OF_ASC_NODE": 237.8242,
    "ARG_OF_PERICENTER": 268.245,
    "MEAN_ANOMALY": 154.4192,
    "EPHEMERIS_TYPE": 0,
    "CLASSIFICATION_TYPE": "U",
    "NORAD_CAT_ID": 58867,
    "ELEMENT_SET_NO": 999,
    "REV_AT_EPOCH": 209,
    "BSTAR": -0.0053025,
    "MEAN_MOTION_DOT": -0.01242994,
    "MEAN_MOTION_DDOT": 0
  },
  {
    "OBJECT_NAME": "STARLINK-31196",
    "OBJECT_ID": "2024-019R",
    "EPOCH": "2024-02-05T06:00:00.999648",
    "MEAN_MOTION": 15.82891339,
    "ECCENTRICITY": 0.0002014,
    "INCLINATION": 43.0052,
    "RA_OF_ASC_NODE": 237.9195,
    "ARG_OF_PERICENTER": 267.4333,
    "MEAN_ANOMALY": 117.2813,
    "EPHEMERIS_TYPE": 0,
    "CLASSIFICATION_TYPE": "U",
    "NORAD_CAT_ID": 58868,
    "ELEMENT_SET_NO": 999,
    "REV_AT_EPOCH": 209,
    "BSTAR": -0.0065785,
    "MEAN_MOTION_DOT": -0.01274738,
    "MEAN_MOTION_DDOT": 0
  },
  {
    "OBJECT_NAME": "STARLINK-31203",
    "OBJECT_ID": "2024-019S",
    "EPOCH": "2024-02-05T06:00:00.999648",
    "MEAN_MOTION": 15.82887715,
    "ECCENTRICITY": 0.0001801,
    "INCLINATION": 43.005,
    "RA_OF_ASC_NODE": 237.9155,
    "ARG_OF_PERICENTER": 269.6471,
    "MEAN_ANOMALY": 116.7192,
    "EPHEMERIS_TYPE": 0,
    "CLASSIFICATION_TYPE": "U",
    "NORAD_CAT_ID": 58869,
    "ELEMENT_SET_NO": 999,
    "REV_AT_EPOCH": 235,
    "BSTAR": -0.0066777,
    "MEAN_MOTION_DOT": -0.01291316,
    "MEAN_MOTION_DDOT": 0
  },
  {
    "OBJECT_NAME": "STARLINK-31201",
    "OBJECT_ID": "2024-019T",
    "EPOCH": "2024-02-05T06:00:00.999648",
    "MEAN_MOTION": 15.82881909,
    "ECCENTRICITY": 0.0001841,
    "INCLINATION": 43.005,
    "RA_OF_ASC_NODE": 237.9117,
    "ARG_OF_PERICENTER": 277.5511,
    "MEAN_ANOMALY": 110.3681,
    "EPHEMERIS_TYPE": 0,
    "CLASSIFICATION_TYPE": "U",
    "NORAD_CAT_ID": 58870,
    "ELEMENT_SET_NO": 999,
    "REV_AT_EPOCH": 214,
    "BSTAR": -0.0067343,
    "MEAN_MOTION_DOT": -0.01300646,
    "MEAN_MOTION_DDOT": 0
  },
  {
    "OBJECT_NAME": "STARLINK-31214",
    "OBJECT_ID": "2024-019U",
    "EPOCH": "2024-02-05T06:00:00.999648",
    "MEAN_MOTION": 15.82881718,
    "ECCENTRICITY": 0.0001835,
    "INCLINATION": 43.0055,
    "RA_OF_ASC_NODE": 237.908,
    "ARG_OF_PERICENTER": 263.4527,
    "MEAN_ANOMALY": 125.9717,
    "EPHEMERIS_TYPE": 0,
    "CLASSIFICATION_TYPE": "U",
    "NORAD_CAT_ID": 58871,
    "ELEMENT_SET_NO": 999,
    "REV_AT_EPOCH": 214,
    "BSTAR": -0.006833,
    "MEAN_MOTION_DOT": -0.01317352,
    "MEAN_MOTION_DDOT": 0
  },
  {
    "OBJECT_NAME": "STARLINK-31215",
    "OBJECT_ID": "2024-019V",
    "EPOCH": "2024-02-05T06:00:00.999648",
    "MEAN_MOTION": 15.82873777,
    "ECCENTRICITY": 0.0001841,
    "INCLINATION": 43.0051,
    "RA_OF_ASC_NODE": 237.9037,
    "ARG_OF_PERICENTER": 263.6192,
    "MEAN_ANOMALY": 127.4781,
    "EPHEMERIS_TYPE": 0,
    "CLASSIFICATION_TYPE": "U",
    "NORAD_CAT_ID": 58872,
    "ELEMENT_SET_NO": 999,
    "REV_AT_EPOCH": 219,
    "BSTAR": -0.0069251,
    "MEAN_MOTION_DOT": -0.01332458,
    "MEAN_MOTION_DDOT": 0
  },
  {
    "OBJECT_NAME": "STARLINK-31177",
    "OBJECT_ID": "2024-019W",
    "EPOCH": "2024-02-05T06:00:00.999648",
    "MEAN_MOTION": 15.82868878,
    "ECCENTRICITY": 0.0001844,
    "INCLINATION": 43.0051,
    "RA_OF_ASC_NODE": 237.8999,
    "ARG_OF_PERICENTER": 268.585,
    "MEAN_ANOMALY": 124.039,
    "EPHEMERIS_TYPE": 0,
    "CLASSIFICATION_TYPE": "U",
    "NORAD_CAT_ID": 58873,
    "ELEMENT_SET_NO": 999,
    "REV_AT_EPOCH": 235,
    "BSTAR": -0.0070078,
    "MEAN_MOTION_DOT": -0.01346088,
    "MEAN_MOTION_DDOT": 0
  }
]