STARLINK-31213          
1 58860U 24019H   24036.25001157 -.01172239  00000+0 -59878-2 0  9994
2 58860  43.0055 237.9515 0001985 264.7152 107.5996 15.82883812  2351
STARLINK-31199          
1 58861U 24019J   24036.25001157 -.01185353  00000+0 -60625-2 0  9998
2 58861  43.0056 237.9473 0001999 269.3737 104.5906 15.82885183  2352
STARLINK-31200          
1 58862U 24019K   24036.25001157 -.01199097  00000+0 -61410-2 0  9992
2 58862  43.0057 237.9433 0001888 269.0622 106.4641 15.82888133  2352
STARLINK-31149          
1 58863U 24019L   24036.25001157 -.01210130  00000+0 -62040-2 0  9995
2 58863  43.0055 237.9395 0001903 272.7787 104.2567 15.82889884  2356
STARLINK-31242          
1 58864U 24019M   24036.25001157 -.01223539  00000+0 -62808-2 0  9995
2 58864  43.0054 237.9354 0002074 270.6647 107.9918 15.82890044  2353
STARLINK-31223          
1 58865U 24019N   24036.25001157 -.01237540  00000+0 -63618-2 0  9993
2 58865  43.0053 237.9314 0001934 265.3034 114.8649 15.82892113  2193
STARLINK-31219          
1 58866U 24019P   24036.25001157 -.01251385  00000+0 -64422-2 0  9991
2 58866  43.0053 237.9274 0001905 264.4430 117.2668 15.82892686  2099
STARLINK-31198          
1 58867U 24019Q   24036.25001157 -.01242994  00000+0 -53025-2 0  9995
2 58867  43.0052 237.8242 0001887 268.2450 154.4192 15.86732520  2095
STARLINK-31196          
1 58868U 24019R   24036.25001157 -.01274738  00000+0 -65785-2 0  9993
2 58868  43.0052 237.9195 0002014 267.4333 117.2813 15.82891339  2095
STARLINK-31203          
1 58869U 24019S   24036.25001157 -.01291316  00000+0 -66777-2 0  9997
2 58869  43.0050 237.9155 0001801 269.6471 116.7192 15.82887715  2356
STARLINK-31201          
1 58870U 24019T   24036.25001157 -.01300646  00000+0 -67343-2 0  9996
2 58870  43.0050 237.9117 0001841 277.5511 110.3681 15.82881909  2142
STARLINK-31214          
1 58871U 24019U   24036.25001157 -.01317352  00000+0 -68330-2 0  9996
2 58871  43.0055 237.9080 0001835 263.4527 125.9717 15.82881718  2141
STARLINK-31215          
1 58872U 24019V   24036.25001157 -.01332458  00000+0 -69251-2 0  9994
2 58872  43.0051 237.9037 0001841 263.6192 127.4781 15.82873777  2196
STARLINK-31177          
1 58873U 24019W   24036.25001157 -.01346088  00000+0 -70078-2 0  9998
2 58873  43.0051 237.8999 0001844 268.5850 124.0390 15.82868878  2354
